{"fetched_at":"2026-07-20T18:28:52.300Z","source":"https://celestrak.org/NORAD/elements/gp.php?GROUP=oneweb&FORMAT=JSON","constellation":"oneweb","records":[{"OBJECT_NAME":"ONEWEB-0340","OBJECT_ID":"2021-083W","EPOCH":"2026-07-20T06:59:49.839648","CLASSIFICATION_TYPE":"U","MEAN_MOTION":13.18686164,"ECCENTRICITY":0.0001837,"INCLINATION":87.9204,"RA_OF_ASC_NODE":328.8741,"ARG_OF_PERICENTER":94.3795,"MEAN_ANOMALY":265.7547,"EPHEMERIS_TYPE":0,"NORAD_CAT_ID":49206,"ELEMENT_SET_NO":999,"REV_AT_EPOCH":23433,"BSTAR":-0.00028239936,"MEAN_MOTION_DOT":-9.8e-7,"MEAN_MOTION_DDOT":0},{"OBJECT_NAME":"ONEWEB-0341","OBJECT_ID":"2021-083X","EPOCH":"2026-07-20T01:41:44.934144","CLASSIFICATION_TYPE":"U","MEAN_MOTION":13.18685189,"ECCENTRICITY":0.00022275,"INCLINATION":87.9197,"RA_OF_ASC_NODE":328.9192,"ARG_OF_PERICENTER":88.4363,"MEAN_ANOMALY":271.7025,"EPHEMERIS_TYPE":0,"NORAD_CAT_ID":49207,"ELEMENT_SET_NO":999,"REV_AT_EPOCH":23432,"BSTAR":-0.00042468979,"MEAN_MOTION_DOT":-0.00000155,"MEAN_MOTION_DDOT":0},{"OBJECT_NAME":"ONEWEB-0342","OBJECT_ID":"2021-083Y","EPOCH":"2026-07-20T03:41:06.172224","CLASSIFICATION_TYPE":"U","MEAN_MOTION":13.2077622,"ECCENTRICITY":0.00022051,"INCLINATION":87.9187,"RA_OF_ASC_NODE":267.8677,"ARG_OF_PERICENTER":99.673,"MEAN_ANOMALY":260.4652,"EPHEMERIS_TYPE":0,"NORAD_CAT_ID":49208,"ELEMENT_SET_NO":999,"REV_AT_EPOCH":24113,"BSTAR":-0.00030796005,"MEAN_MOTION_DOT":-0.00000112,"MEAN_MOTION_DDOT":0},{"OBJECT_NAME":"ONEWEB-0343","OBJECT_ID":"2021-083Z","EPOCH":"2026-07-20T01:53:53.421792","CLASSIFICATION_TYPE":"U","MEAN_MOTION":13.18687356,"ECCENTRICITY":0.00022933,"INCLINATION":87.9197,"RA_OF_ASC_NODE":328.9165,"ARG_OF_PERICENTER":104.288,"MEAN_ANOMALY":255.8507,"EPHEMERIS_TYPE":0,"NORAD_CAT_ID":49209,"ELEMENT_SET_NO":999,"REV_AT_EPOCH":23437,"BSTAR":-0.000006604557,"MEAN_MOTION_DOT":1e-7,"MEAN_MOTION_DDOT":0},{"OBJECT_NAME":"ONEWEB-0344","OBJECT_ID":"2021-083AA","EPOCH":"2026-07-20T06:10:12.929376","CLASSIFICATION_TYPE":"U","MEAN_MOTION":13.13469017,"ECCENTRICITY":0.00021753,"INCLINATION":87.898,"RA_OF_ASC_NODE":313.6579,"ARG_OF_PERICENTER":90.2167,"MEAN_ANOMALY":269.9211,"EPHEMERIS_TYPE":0,"NORAD_CAT_ID":49210,"ELEMENT_SET_NO":999,"REV_AT_EPOCH":23523,"BSTAR":-0.0005305671,"MEAN_MOTION_DOT":-0.00000181,"MEAN_MOTION_DDOT":0},{"OBJECT_NAME":"ONEWEB-0345","OBJECT_ID":"2021-083AB","EPOCH":"2026-07-20T05:58:02.459712","CLASSIFICATION_TYPE":"U","MEAN_MOTION":13.13469885,"ECCENTRICITY":0.0002177,"INCLINATION":87.899,"RA_OF_ASC_NODE":313.6452,"ARG_OF_PERICENTER":93.8839,"MEAN_ANOMALY":266.2539,"EPHEMERIS_TYPE":0,"NORAD_CAT_ID":49211,"ELEMENT_SET_NO":999,"REV_AT_EPOCH":23524,"BSTAR":-0.00010311186,"MEAN_MOTION_DOT":-2.5e-7,"MEAN_MOTION_DDOT":0},{"OBJECT_NAME":"ONEWEB-0346","OBJECT_ID":"2021-083AC","EPOCH":"2026-07-20T07:16:49.261152","CLASSIFICATION_TYPE":"U","MEAN_MOTION":13.18685978,"ECCENTRICITY":0.00013752,"INCLINATION":87.9194,"RA_OF_ASC_NODE":328.8708,"ARG_OF_PERICENTER":84.1045,"MEAN_ANOMALY":276.0244,"EPHEMERIS_TYPE":0,"NORAD_CAT_ID":49212,"ELEMENT_SET_NO":999,"REV_AT_EPOCH":23434,"BSTAR":-0.00042339778,"MEAN_MOTION_DOT":-0.00000154,"MEAN_MOTION_DDOT":0},{"OBJECT_NAME":"ONEWEB-0348","OBJECT_ID":"2021-083AD","EPOCH":"2026-07-20T03:26:34.816128","CLASSIFICATION_TYPE":"U","MEAN_MOTION":13.20772815,"ECCENTRICITY":0.00019916,"INCLINATION":87.9179,"RA_OF_ASC_NODE":267.874,"ARG_OF_PERICENTER":82.9157,"MEAN_ANOMALY":277.2203,"EPHEMERIS_TYPE":0,"NORAD_CAT_ID":49213,"ELEMENT_SET_NO":999,"REV_AT_EPOCH":24116,"BSTAR":0.000091050776,"MEAN_MOTION_DOT":5e-7,"MEAN_MOTION_DDOT":0},{"OBJECT_NAME":"ONEWEB-0350","OBJECT_ID":"2021-083AE","EPOCH":"2026-07-20T06:25:01.909344","CLASSIFICATION_TYPE":"U","MEAN_MOTION":13.13472001,"ECCENTRICITY":0.00018473,"INCLINATION":87.8984,"RA_OF_ASC_NODE":313.6456,"ARG_OF_PERICENTER":133.1252,"MEAN_ANOMALY":227.0031,"EPHEMERIS_TYPE":0,"NORAD_CAT_ID":49214,"ELEMENT_SET_NO":999,"REV_AT_EPOCH":23527,"BSTAR":-0.00064177198,"MEAN_MOTION_DOT":-0.00000222,"MEAN_MOTION_DDOT":0},{"OBJECT_NAME":"ONEWEB-0351","OBJECT_ID":"2021-083AF","EPOCH":"2026-07-20T03:16:41.278368","CLASSIFICATION_TYPE":"U","MEAN_MOTION":13.20771212,"ECCENTRICITY":0.00027105,"INCLINATION":87.9179,"RA_OF_ASC_NODE":267.8742,"ARG_OF_PERICENTER":99.9447,"MEAN_ANOMALY":260.1992,"EPHEMERIS_TYPE":0,"NORAD_CAT_ID":49215,"ELEMENT_SET_NO":999,"REV_AT_EPOCH":24112,"BSTAR":0.00016868346,"MEAN_MOTION_DOT":8.2e-7,"MEAN_MOTION_DDOT":0},{"OBJECT_NAME":"ONEWEB-0352","OBJECT_ID":"2021-083AG","EPOCH":"2026-07-20T00:14:20.021280","CLASSIFICATION_TYPE":"U","MEAN_MOTION":13.13469196,"ECCENTRICITY":0.00023239,"INCLINATION":87.8983,"RA_OF_ASC_NODE":313.7013,"ARG_OF_PERICENTER":105.1287,"MEAN_ANOMALY":255.0099,"EPHEMERIS_TYPE":0,"NORAD_CAT_ID":49216,"ELEMENT_SET_NO":999,"REV_AT_EPOCH":23533,"BSTAR":0.000388464,"MEAN_MOTION_DOT":0.00000155,"MEAN_MOTION_DDOT":0},{"OBJECT_NAME":"ONEWEB-0354","OBJECT_ID":"2021-083AH","EPOCH":"2026-07-20T02:06:35.034336","CLASSIFICATION_TYPE":"U","MEAN_MOTION":13.20770864,"ECCENTRICITY":0.0002071,"INCLINATION":87.9183,"RA_OF_ASC_NODE":267.8832,"ARG_OF_PERICENTER":88.2228,"MEAN_ANOMALY":271.9142,"EPHEMERIS_TYPE":0,"NORAD_CAT_ID":49217,"ELEMENT_SET_NO":999,"REV_AT_EPOCH":24115,"BSTAR":-0.000019888108,"MEAN_MOTION_DOT":5e-8,"MEAN_MOTION_DDOT":0},{"OBJECT_NAME":"ONEWEB-0355","OBJECT_ID":"2021-083AJ","EPOCH":"2026-07-20T06:26:02.684832","CLASSIFICATION_TYPE":"U","MEAN_MOTION":13.13468325,"ECCENTRICITY":0.00021635,"INCLINATION":87.898,"RA_OF_ASC_NODE":313.6507,"ARG_OF_PERICENTER":99.4472,"MEAN_ANOMALY":260.6902,"EPHEMERIS_TYPE":0,"NORAD_CAT_ID":49218,"ELEMENT_SET_NO":999,"REV_AT_EPOCH":23524,"BSTAR":-0.00058430416,"MEAN_MOTION_DOT":-0.00000201,"MEAN_MOTION_DDOT":0},{"OBJECT_NAME":"ONEWEB-0357","OBJECT_ID":"2021-083AK","EPOCH":"2026-07-20T03:50:49.077600","CLASSIFICATION_TYPE":"U","MEAN_MOTION":13.20770535,"ECCENTRICITY":0.00022319,"INCLINATION":87.918,"RA_OF_ASC_NODE":267.8622,"ARG_OF_PERICENTER":100.09,"MEAN_ANOMALY":260.0485,"EPHEMERIS_TYPE":0,"NORAD_CAT_ID":49219,"ELEMENT_SET_NO":999,"REV_AT_EPOCH":24116,"BSTAR":0.0001965404,"MEAN_MOTION_DOT":9.3e-7,"MEAN_MOTION_DDOT":0},{"OBJECT_NAME":"ONEWEB-0332","OBJECT_ID":"2021-090A","EPOCH":"2026-07-19T17:18:08.055648","CLASSIFICATION_TYPE":"U","MEAN_MOTION":13.14503578,"ECCENTRICITY":0.00020296,"INCLINATION":87.8963,"RA_OF_ASC_NODE":283.2268,"ARG_OF_PERICENTER":105.7076,"MEAN_ANOMALY":254.4278,"EPHEMERIS_TYPE":0,"NORAD_CAT_ID":49279,"ELEMENT_SET_NO":999,"REV_AT_EPOCH":23185,"BSTAR":-0.00054026833,"MEAN_MOTION_DOT":-0.00000188,"MEAN_MOTION_DDOT":0},{"OBJECT_NAME":"ONEWEB-0347","OBJECT_ID":"2021-090B","EPOCH":"2026-07-20T03:36:16.644960","CLASSIFICATION_TYPE":"U","MEAN_MOTION":13.20770649,"ECCENTRICITY":0.00020567,"INCLINATION":87.9179,"RA_OF_ASC_NODE":267.872,"ARG_OF_PERICENTER":105.3305,"MEAN_ANOMALY":254.8056,"EPHEMERIS_TYPE":0,"NORAD_CAT_ID":49280,"ELEMENT_SET_NO":999,"REV_AT_EPOCH":23539,"BSTAR":0.00031755869,"MEAN_MOTION_DOT":0.00000142,"MEAN_MOTION_DDOT":0}]}
