ONEWEB-0340             
1 49206U 21083W   26201.29154907 -.00000098  00000+0 -28240-3 0  9990
2 49206  87.9204 328.8741 0001837  94.3795 265.7547 13.18686164234337
ONEWEB-0341             
1 49207U 21083X   26201.07065896 -.00000155  00000+0 -42469-3 0  9998
2 49207  87.9197 328.9192 0002227  88.4363 271.7025 13.18685189234322
ONEWEB-0342             
1 49208U 21083Y   26201.15354366 -.00000112  00000+0 -30796-3 0  9994
2 49208  87.9187 267.8677 0002205  99.6730 260.4652 13.20776220241137
ONEWEB-0343             
1 49209U 21083Z   26201.07909053  .00000010  00000+0 -66046-5 0  9990
2 49209  87.9197 328.9165 0002293 104.2880 255.8507 13.18687356234379
ONEWEB-0344             
1 49210U 21083AA  26201.25709409 -.00000181  00000+0 -53057-3 0  9991
2 49210  87.8980 313.6579 0002175  90.2167 269.9211 13.13469017235232
ONEWEB-0345             
1 49211U 21083AB  26201.24863958 -.00000025  00000+0 -10311-3 0  9994
2 49211  87.8990 313.6452 0002177  93.8839 266.2539 13.13469885235248
ONEWEB-0346             
1 49212U 21083AC  26201.30334793 -.00000154  00000+0 -42340-3 0  9992
2 49212  87.9194 328.8708 0001375  84.1045 276.0244 13.18685978234349
ONEWEB-0348             
1 49213U 21083AD  26201.14345852  .00000050  00000+0  91051-4 0  9990
2 49213  87.9179 267.8740 0001991  82.9157 277.2203 13.20772815241161
ONEWEB-0350             
1 49214U 21083AE  26201.26738321 -.00000222  00000+0 -64177-3 0  9992
2 49214  87.8984 313.6456 0001847 133.1252 227.0031 13.13472001235277
ONEWEB-0351             
1 49215U 21083AF  26201.13658887  .00000082  00000+0  16868-3 0  9993
2 49215  87.9179 267.8742 0002710  99.9447 260.1992 13.20771212241127
ONEWEB-0352             
1 49216U 21083AG  26201.00995395  .00000155  00000+0  38846-3 0  9999
2 49216  87.8983 313.7013 0002323 105.1287 255.0099 13.13469196235338
ONEWEB-0354             
1 49217U 21083AH  26201.08790549  .00000005  00000+0 -19888-4 0  9993
2 49217  87.9183 267.8832 0002071  88.2228 271.9142 13.20770864241154
ONEWEB-0355             
1 49218U 21083AJ  26201.26808663 -.00000201  00000+0 -58430-3 0  9995
2 49218  87.8980 313.6507 0002163  99.4472 260.6902 13.13468325235245
ONEWEB-0357             
1 49219U 21083AK  26201.16029025  .00000093  00000+0  19654-3 0  9994
2 49219  87.9180 267.8622 0002231 100.0900 260.0485 13.20770535241163
ONEWEB-0332             
1 49279U 21090A   26200.72092657 -.00000188  00000+0 -54027-3 0  9990
2 49279  87.8963 283.2268 0002029 105.7076 254.4278 13.14503578231852
ONEWEB-0347             
1 49280U 21090B   26201.15019265  .00000142  00000+0  31756-3 0  9996
2 49280  87.9179 267.8720 0002056 105.3305 254.8056 13.20770649235399
